[{"OBJECT_NAME":"ONEWEB-0564","OBJECT_ID":"2023-029F","EPOCH":"2026-05-19T02:53:34.821888","MEAN_MOTION":13.20753629,"ECCENTRICITY":0.0002286,"INCLINATION":87.9167,"RA_OF_ASC_NODE":280.2528,"ARG_OF_PERICENTER":101.6427,"MEAN_ANOMALY":258.4963,"EPHEMERIS_TYPE":0,"CLASSIFICATION_TYPE":"U","NORAD_CAT_ID":55801,"ELEMENT_SET_NO":999,"REV_AT_EPOCH":15731,"BSTAR":0.006297700000000001,"MEAN_MOTION_DOT":2.574e-05,"MEAN_MOTION_DDOT":0.0},{"OBJECT_NAME":"ONEWEB-0638","OBJECT_ID":"2023-029G","EPOCH":"2026-05-19T03:55:54.730560","MEAN_MOTION":13.14502663,"ECCENTRICITY":0.0002312,"INCLINATION":87.8925,"RA_OF_ASC_NODE":295.5438,"ARG_OF_PERICENTER":88.9932,"MEAN_ANOMALY":271.1463,"EPHEMERIS_TYPE":0,"CLASSIFICATION_TYPE":"U","NORAD_CAT_ID":55802,"ELEMENT_SET_NO":999,"REV_AT_EPOCH":15558,"BSTAR":-0.0009498400000000001,"MEAN_MOTION_DOT":-3.39e-06,"MEAN_MOTION_DDOT":0.0},{"OBJECT_NAME":"ONEWEB-0639","OBJECT_ID":"2023-029H","EPOCH":"2026-05-19T05:19:01.399008","MEAN_MOTION":13.19725658,"ECCENTRICITY":0.0001309,"INCLINATION":87.9146,"RA_OF_ASC_NODE":310.7518,"ARG_OF_PERICENTER":60.4865,"MEAN_ANOMALY":299.6398,"EPHEMERIS_TYPE":0,"CLASSIFICATION_TYPE":"U","NORAD_CAT_ID":55803,"ELEMENT_SET_NO":999,"REV_AT_EPOCH":15508,"BSTAR":-7.8745e-05,"MEAN_MOTION_DOT":-1.9e-07,"MEAN_MOTION_DDOT":0.0},{"OBJECT_NAME":"ONEWEB-0640","OBJECT_ID":"2023-029J","EPOCH":"2026-05-19T04:09:37.064160","MEAN_MOTION":13.14504027,"ECCENTRICITY":0.0002234,"INCLINATION":87.8925,"RA_OF_ASC_NODE":295.5328,"ARG_OF_PERICENTER":79.8393,"MEAN_ANOMALY":280.2988,"EPHEMERIS_TYPE":0,"CLASSIFICATION_TYPE":"U","NORAD_CAT_ID":55804,"ELEMENT_SET_NO":999,"REV_AT_EPOCH":15560,"BSTAR":-0.00011403,"MEAN_MOTION_DOT":-2.9e-07,"MEAN_MOTION_DDOT":0.0},{"OBJECT_NAME":"ONEWEB-0641","OBJECT_ID":"2023-029K","EPOCH":"2026-05-18T21:55:29.040384","MEAN_MOTION":13.19725771,"ECCENTRICITY":0.0001683,"INCLINATION":87.9148,"RA_OF_ASC_NODE":310.8004,"ARG_OF_PERICENTER":90.0108,"MEAN_ANOMALY":270.1217,"EPHEMERIS_TYPE":0,"CLASSIFICATION_TYPE":"U","NORAD_CAT_ID":55805,"ELEMENT_SET_NO":999,"REV_AT_EPOCH":15505,"BSTAR":-5.4001999999999996e-05,"MEAN_MOTION_DOT":-9e-08,"MEAN_MOTION_DDOT":0.0},{"OBJECT_NAME":"ONEWEB-0642","OBJECT_ID":"2023-029L","EPOCH":"2026-05-19T05:05:21.750720","MEAN_MOTION":13.19724736,"ECCENTRICITY":0.0001158,"INCLINATION":87.9148,"RA_OF_ASC_NODE":310.7544,"ARG_OF_PERICENTER":72.1109,"MEAN_ANOMALY":288.015,"EPHEMERIS_TYPE":0,"CLASSIFICATION_TYPE":"U","NORAD_CAT_ID":55806,"ELEMENT_SET_NO":999,"REV_AT_EPOCH":15508,"BSTAR":-0.00011719000000000001,"MEAN_MOTION_DOT":-3.4e-07,"MEAN_MOTION_DDOT":0.0},{"OBJECT_NAME":"ONEWEB-0643","OBJECT_ID":"2023-029M","EPOCH":"2026-05-19T03:26:14.692704","MEAN_MOTION":13.14503461,"ECCENTRICITY":0.0001107,"INCLINATION":87.8927,"RA_OF_ASC_NODE":295.526,"ARG_OF_PERICENTER":93.8034,"MEAN_ANOMALY":266.3223,"EPHEMERIS_TYPE":0,"CLASSIFICATION_TYPE":"U","NORAD_CAT_ID":55807,"ELEMENT_SET_NO":999,"REV_AT_EPOCH":15557,"BSTAR":-0.0005616299999999999,"MEAN_MOTION_DOT":-1.95e-06,"MEAN_MOTION_DDOT":0.0},{"OBJECT_NAME":"ONEWEB-0644","OBJECT_ID":"2023-029N","EPOCH":"2026-05-19T04:58:31.736064","MEAN_MOTION":13.19726324,"ECCENTRICITY":0.0001471,"INCLINATION":87.9147,"RA_OF_ASC_NODE":310.7573,"ARG_OF_PERICENTER":86.7727,"MEAN_ANOMALY":273.3575,"EPHEMERIS_TYPE":0,"CLASSIFICATION_TYPE":"U","NORAD_CAT_ID":55808,"ELEMENT_SET_NO":999,"REV_AT_EPOCH":15508,"BSTAR":7.1138e-08,"MEAN_MOTION_DOT":1.3e-07,"MEAN_MOTION_DDOT":0.0},{"OBJECT_NAME":"ONEWEB-0645","OBJECT_ID":"2023-029P","EPOCH":"2026-05-19T05:30:22.980960","MEAN_MOTION":13.19725872,"ECCENTRICITY":0.0001784,"INCLINATION":87.9148,"RA_OF_ASC_NODE":310.75,"ARG_OF_PERICENTER":76.7064,"MEAN_ANOMALY":283.4267,"EPHEMERIS_TYPE":0,"CLASSIFICATION_TYPE":"U","NORAD_CAT_ID":55809,"ELEMENT_SET_NO":999,"REV_AT_EPOCH":15508,"BSTAR":-0.00032491999999999997,"MEAN_MOTION_DOT":-1.17e-06,"MEAN_MOTION_DDOT":0.0},{"OBJECT_NAME":"ONEWEB-0646","OBJECT_ID":"2023-029Q","EPOCH":"2026-05-19T04:06:14.090688","MEAN_MOTION":13.1972562,"ECCENTRICITY":0.0001522,"INCLINATION":87.9147,"RA_OF_ASC_NODE":310.7618,"ARG_OF_PERICENTER":88.7338,"MEAN_ANOMALY":271.3969,"EPHEMERIS_TYPE":0,"CLASSIFICATION_TYPE":"U","NORAD_CAT_ID":55810,"ELEMENT_SET_NO":999,"REV_AT_EPOCH":15506,"BSTAR":-0.00016228,"MEAN_MOTION_DOT":-5.2e-07,"MEAN_MOTION_DDOT":0.0},{"OBJECT_NAME":"ONEWEB-0648","OBJECT_ID":"2023-029R","EPOCH":"2026-05-19T04:30:11.721024","MEAN_MOTION":13.14503492,"ECCENTRICITY":0.0001535,"INCLINATION":87.894,"RA_OF_ASC_NODE":295.488,"ARG_OF_PERICENTER":65.5685,"MEAN_ANOMALY":294.5605,"EPHEMERIS_TYPE":0,"CLASSIFICATION_TYPE":"U","NORAD_CAT_ID":55811,"ELEMENT_SET_NO":999,"REV_AT_EPOCH":15558,"BSTAR":0.00049665,"MEAN_MOTION_DOT":1.97e-06,"MEAN_MOTION_DDOT":0.0},{"OBJECT_NAME":"ONEWEB-0649","OBJECT_ID":"2023-029S","EPOCH":"2026-05-19T04:42:37.354752","MEAN_MOTION":13.19726254,"ECCENTRICITY":0.000172,"INCLINATION":87.9145,"RA_OF_ASC_NODE":310.7541,"ARG_OF_PERICENTER":83.7825,"MEAN_ANOMALY":276.3503,"EPHEMERIS_TYPE":0,"CLASSIFICATION_TYPE":"U","NORAD_CAT_ID":55812,"ELEMENT_SET_NO":999,"REV_AT_EPOCH":15510,"BSTAR":-1.4480000000000002e-05,"MEAN_MOTION_DOT":7e-08,"MEAN_MOTION_DDOT":0.0},{"OBJECT_NAME":"ONEWEB-0650","OBJECT_ID":"2023-029T","EPOCH":"2026-05-19T04:35:48.079680","MEAN_MOTION":13.19725737,"ECCENTRICITY":0.0001429,"INCLINATION":87.9143,"RA_OF_ASC_NODE":310.7577,"ARG_OF_PERICENTER":82.5204,"MEAN_ANOMALY":277.6091,"EPHEMERIS_TYPE":0,"CLASSIFICATION_TYPE":"U","NORAD_CAT_ID":55813,"ELEMENT_SET_NO":999,"REV_AT_EPOCH":15507,"BSTAR":0.00017669000000000002,"MEAN_MOTION_DOT":8.4e-07,"MEAN_MOTION_DDOT":0.0},{"OBJECT_NAME":"ONEWEB-0652","OBJECT_ID":"2023-029U","EPOCH":"2026-05-19T04:02:47.421888","MEAN_MOTION":13.14503745,"ECCENTRICITY":0.0001913,"INCLINATION":87.8926,"RA_OF_ASC_NODE":295.5004,"ARG_OF_PERICENTER":100.4244,"MEAN_ANOMALY":259.7102,"EPHEMERIS_TYPE":0,"CLASSIFICATION_TYPE":"U","NORAD_CAT_ID":55814,"ELEMENT_SET_NO":999,"REV_AT_EPOCH":15555,"BSTAR":-0.0002503,"MEAN_MOTION_DOT":-8e-07,"MEAN_MOTION_DDOT":0.0},{"OBJECT_NAME":"ONEWEB-0653","OBJECT_ID":"2023-029V","EPOCH":"2026-05-19T03:39:55.512576","MEAN_MOTION":13.14499245,"ECCENTRICITY":0.0001956,"INCLINATION":87.8935,"RA_OF_ASC_NODE":295.5005,"ARG_OF_PERICENTER":95.3179,"MEAN_ANOMALY":264.8174,"EPHEMERIS_TYPE":0,"CLASSIFICATION_TYPE":"U","NORAD_CAT_ID":55815,"ELEMENT_SET_NO":999,"REV_AT_EPOCH":15558,"BSTAR":0.00035888,"MEAN_MOTION_DOT":1.46e-06,"MEAN_MOTION_DDOT":0.0},{"OBJECT_NAME":"ONEWEB-0654","OBJECT_ID":"2023-029W","EPOCH":"2026-05-19T03:33:05.227488","MEAN_MOTION":13.14501004,"ECCENTRICITY":0.0002157,"INCLINATION":87.8936,"RA_OF_ASC_NODE":295.4977,"ARG_OF_PERICENTER":100.4109,"MEAN_ANOMALY":259.7264,"EPHEMERIS_TYPE":0,"CLASSIFICATION_TYPE":"U","NORAD_CAT_ID":55816,"ELEMENT_SET_NO":999,"REV_AT_EPOCH":15560,"BSTAR":-0.00056804,"MEAN_MOTION_DOT":-1.98e-06,"MEAN_MOTION_DDOT":0.0}]