ONEWEB-0564             
1 55801U 23029F   26139.12054192  .00002574  00000+0  62977-2 0  9990
2 55801  87.9167 280.2528 0002286 101.6427 258.4963 13.20753629157317
ONEWEB-0638             
1 55802U 23029G   26139.16382790 -.00000339  00000+0 -94984-3 0  9996
2 55802  87.8925 295.5438 0002312  88.9932 271.1463 13.14502663155583
ONEWEB-0639             
1 55803U 23029H   26139.22154397 -.00000019  00000+0 -78745-4 0  9997
2 55803  87.9146 310.7518 0001309  60.4865 299.6398 13.19725658155087
ONEWEB-0640             
1 55804U 23029J   26139.17334565 -.00000029  00000+0 -11403-3 0  9997
2 55804  87.8925 295.5328 0002234  79.8393 280.2988 13.14504027155608
ONEWEB-0641             
1 55805U 23029K   26138.91353056 -.00000009  00000+0 -54002-4 0  9996
2 55805  87.9148 310.8004 0001683  90.0108 270.1217 13.19725771155053
ONEWEB-0642             
1 55806U 23029L   26139.21205730 -.00000034  00000+0 -11719-3 0  9991
2 55806  87.9148 310.7544 0001158  72.1109 288.0150 13.19724736155088
ONEWEB-0643             
1 55807U 23029M   26139.14322561 -.00000195  00000+0 -56163-3 0  9996
2 55807  87.8927 295.5260 0001107  93.8034 266.3223 13.14503461155578
ONEWEB-0644             
1 55808U 23029N   26139.20731176  .00000013  00000+0  71138-7 0  9990
2 55808  87.9147 310.7573 0001471  86.7727 273.3575 13.19726324155089
ONEWEB-0645             
1 55809U 23029P   26139.22943265 -.00000117  00000+0 -32492-3 0  9990
2 55809  87.9148 310.7500 0001784  76.7064 283.4267 13.19725872155088
ONEWEB-0646             
1 55810U 23029Q   26139.17099642 -.00000052  00000+0 -16228-3 0  9994
2 55810  87.9147 310.7618 0001522  88.7338 271.3969 13.19725620155060
ONEWEB-0648             
1 55811U 23029R   26139.18763566  .00000197  00000+0  49665-3 0  9998
2 55811  87.8940 295.4880 0001535  65.5685 294.5605 13.14503492155580
ONEWEB-0649             
1 55812U 23029S   26139.19626568  .00000007  00000+0 -14480-4 0  9999
2 55812  87.9145 310.7541 0001720  83.7825 276.3503 13.19726254155109
ONEWEB-0650             
1 55813U 23029T   26139.19152870  .00000084  00000+0  17669-3 0  9995
2 55813  87.9143 310.7577 0001429  82.5204 277.6091 13.19725737155078
ONEWEB-0652             
1 55814U 23029U   26139.16860442 -.00000080  00000+0 -25030-3 0  9993
2 55814  87.8926 295.5004 0001913 100.4244 259.7102 13.14503745155559
ONEWEB-0653             
1 55815U 23029V   26139.15272584  .00000146  00000+0  35888-3 0  9990
2 55815  87.8935 295.5005 0001956  95.3179 264.8174 13.14499245155585
ONEWEB-0654             
1 55816U 23029W   26139.14797717 -.00000198  00000+0 -56804-3 0  9990
2 55816  87.8936 295.4977 0002157 100.4109 259.7264 13.14501004155602
